ONEWEB-0474             
1 51654U 22012AJ  23262.66417379 -.00000162  00000+0 -50120-3 0  9997
2 51654  87.8919 235.1079 0002331  85.1982 274.9412 13.10376337 79429
ONEWEB-0475             
1 51655U 22012AK  23262.39535564  .00000014  00000+0  35560-5 0  9992
2 51655  87.9233 204.9357 0002320  87.2944 272.8453 13.17655733 83055
ONEWEB-0490             
1 54113U 22138A   23262.74637033  .00000025  00000+0  29788-4 0  9992
2 54113  87.9252 144.2834 0001920  77.2519 282.8829 13.19729587 45615
ONEWEB-0492             
1 54114U 22138B   23263.22656691  .00000087  00000+0  18598-3 0  9992
2 54114  87.9250 144.1839 0002149  76.5603 283.5769 13.19724025 45688
ONEWEB-0495             
1 54115U 22138C   23262.21882396  .00000023  00000+0  25355-4 0  9994
2 54115  87.9253 144.3954 0002257  85.3814 274.7577 13.19728417 45536
ONEWEB-0497             
1 54116U 22138D   23262.68635547 -.00000406  00000+0 -10467-2 0  9993
2 54116  87.9255 144.2952 0001958  77.2829 282.8523 13.19726834 45586
ONEWEB-0499             
1 54117U 22138E   23262.74480536  .00000030  00000+0  41917-4 0  9994
2 54117  87.9250 144.2817 0001648  98.2127 261.9192 13.19727083 45602
ONEWEB-0500             
1 54118U 22138F   23262.21724783  .00000051  00000+0  95166-4 0  9990
2 54118  87.9257 144.3816 0001880  75.3348 284.7993 13.19726201 45545
